NORAD_CAT_ID,OBJECT_NAME,OBJECT_TYPE,EPOCH,MEAN_MOTION,ECCENTRICITY,INCLINATION,RA_OF_ASC_NODE,ARG_OF_PERICENTER,MEAN_ANOMALY,BSTAR,MEAN_MOTION_DOT,MEAN_MOTION_DDOT,TLE_LINE0,TLE_LINE1,TLE_LINE2,SEMIMAJOR_AXIS,PERIOD,APOGEE,PERIGEE,DECAYED
49747.0,STARLINK-3247,PAYLOAD,2023-10-08 22:04:00,15.08861774,0.0001156,53.2152,152.0315,93.1563,266.9561,0.00080876,0.00012615,0.0,0 STARLINK-3247,1 49747U 21115Z   23281.91945053  .00012615  00000-0  80876-3 0  9990,2 49747  53.2152 152.0315 0001156  93.1563 266.9561 15.08861774102261,6917.814,95.436,540.479,538.879,0.0
49747.0,STARLINK-3247,PAYLOAD,2023-10-09 01:14:46,15.08870186,0.0001213,53.2153,151.4362,93.8906,266.2225,0.0010759,0.00016891,0.0,0 STARLINK-3247,1 49747U 21115Z   23282.05192777  .00016891  00000-0  10759-2 0  9995,2 49747  53.2153 151.4362 0001213  93.8906 266.2225 15.08870186103391,6917.788,95.436,540.492,538.814,0.0
49747.0,STARLINK-3247,PAYLOAD,2023-10-09 20:19:24,15.08839102,0.0001195,53.2159,147.8681,87.4724,272.6405,3.1843e-05,2.19e-06,0.0,0 STARLINK-3247,1 49747U 21115Z   23282.84681461  .00000219  00000-0  31843-4 0  9991,2 49747  53.2159 147.8681 0001195  87.4724 272.6405 15.08839102103514,6917.883,95.438,540.575,538.921,0.0
49747.0,STARLINK-3247,PAYLOAD,2023-10-09 21:54:47,15.08839278,0.0001193,53.216,147.5706,83.7392,276.3736,5.9353e-05,6.57e-06,0.0,0 STARLINK-3247,1 49747U 21115Z   23282.91305483  .00000657  00000-0  59353-4 0  9998,2 49747  53.2160 147.5706 0001193  83.7392 276.3736 15.08839278102419,6917.883,95.438,540.573,538.922,0.0
49747.0,STARLINK-3247,PAYLOAD,2023-10-09 23:30:11,15.08843532,0.0001177,53.2161,147.273,77.4978,282.6146,0.00014812,2.07e-05,0.0,0 STARLINK-3247,1 49747U 21115Z   23282.97929448  .00002070  00000-0  14812-3 0  9998,2 49747  53.2161 147.2730 0001177  77.4978 282.6146 15.08843532102420,6917.87,95.437,540.549,538.92,0.0
49747.0,STARLINK-3247,PAYLOAD,2023-10-10 21:45:34,15.0885631,0.0001099,53.2158,143.1093,80.533,279.5786,0.00075936,0.00011823,0.0,0 STARLINK-3247,1 49747U 21115Z   23283.90665217  .00011823  00000-0  75936-3 0  9993,2 49747  53.2158 143.1093 0001099  80.5330 279.5786 15.08856310102561,6917.831,95.437,540.456,538.935,0.0
49747.0,STARLINK-3247,PAYLOAD,2023-10-10 23:20:57,15.0885963,0.0001123,53.2159,142.8122,74.4482,285.6634,0.00082477,0.0001287,0.0,0 STARLINK-3247,1 49747U 21115Z   23283.97289124  .00012870  00000-0  82477-3 0  9990,2 49747  53.2159 142.8122 0001123  74.4482 285.6634 15.08859630103681,6917.82,95.436,540.462,538.909,0.0
49747.0,STARLINK-3247,PAYLOAD,2023-10-11 07:17:53,15.08841867,0.0001143,53.2164,141.3254,94.9603,265.152,0.00022329,3.268e-05,0.0,0 STARLINK-3247,1 49747U 21115Z   23284.30409247  .00003268  00000-0  22329-3 0  9999,2 49747  53.2164 141.3254 0001143  94.9603 265.1520 15.08841867103737,6917.875,95.437,540.53,538.949,0.0
49747.0,STARLINK-3247,PAYLOAD,2023-10-12 07:08:41,15.08842888,0.0001168,53.2152,136.8655,79.392,280.7204,0.00066429,0.00010301,0.0,0 STARLINK-3247,1 49747U 21115Z   23285.29769752  .00010301  00000-0  66429-3 0  9993,2 49747  53.2152 136.8655 0001168  79.3920 280.7204 15.08842888102773,6917.872,95.437,540.545,538.929,0.0
49747.0,STARLINK-3247,PAYLOAD,2023-10-12 19:51:46,15.08843476,0.0001197,53.2147,134.4868,81.5241,278.5886,0.00043623,6.662e-05,0.0,0 STARLINK-3247,1 49747U 21115Z   23285.82761859  .00006662  00000-0  43623-3 0  9998,2 49747  53.2147 134.4868 0001197  81.5241 278.5886 15.08843476103967,6917.87,95.437,540.563,538.907,0.0
49747.0,STARLINK-3247,PAYLOAD,2023-10-12 21:27:09,15.08847665,0.0001202,53.2148,134.1894,79.7015,280.4113,0.00057261,8.839e-05,0.0,0 STARLINK-3247,1 49747U 21115Z   23285.89385790  .00008839  00000-0  57261-3 0  9992,2 49747  53.2148 134.1894 0001202  79.7015 280.4113 15.08847665102866,6917.857,95.437,540.553,538.89,0.0
49747.0,STARLINK-3247,PAYLOAD,2023-10-13 19:42:33,15.08849367,0.0001246,53.2141,130.0268,72.8443,287.2686,0.00040282,6.13e-05,0.0,0 STARLINK-3247,1 49747U 21115Z   23286.82121710  .00006130  00000-0  40282-3 0  9993,2 49747  53.2141 130.0268 0001246  72.8443 287.2686 15.08849367104117,6917.852,95.437,540.579,538.855,0.0
49747.0,STARLINK-3247,PAYLOAD,2023-10-14 06:50:15,15.08843122,0.0001397,53.2143,127.9439,81.6912,278.4238,0.00012511,1.704e-05,0.0,0 STARLINK-3247,1 49747U 21115Z   23287.28489635  .00001704  00000-0  12511-3 0  9993,2 49747  53.2143 127.9439 0001397  81.6912 278.4238 15.08843122104185,6917.871,95.437,540.702,538.769,0.0
49747.0,STARLINK-3247,PAYLOAD,2023-10-14 13:11:47,15.08844849,0.0001592,53.2135,126.7566,80.0885,280.0287,0.00019592,2.832e-05,0.0,0 STARLINK-3247,1 49747U 21115Z   23287.54985726  .00002832  00000-0  19592-3 0  9993,2 49747  53.2135 126.7566 0001592  80.0885 280.0287 15.08844849103115,6917.866,95.437,540.832,538.629,0.0
49747.0,STARLINK-3247,PAYLOAD,2023-10-14 19:33:20,15.08838911,0.0001367,53.2144,125.5652,81.458,278.6567,3.2303e-05,2.26e-06,0.0,0 STARLINK-3247,1 49747U 21115Z   23287.81481911  .00000226  00000-0  32303-4 0  9991,2 49747  53.2144 125.5652 0001367  81.4580 278.6567 15.08838911103156,6917.884,95.438,540.694,538.803,0.0
49747.0,STARLINK-3247,PAYLOAD,2023-10-15 06:41:02,15.08840669,0.0001372,53.215,123.4837,86.6755,273.4394,0.00010656,1.408e-05,0.0,0 STARLINK-3247,1 49747U 21115Z   23288.27849949  .00001408  00000-0  10656-3 0  9990,2 49747  53.2150 123.4837 0001372  86.6755 273.4394 15.08840669103224,6917.878,95.438,540.692,538.794,0.0
49747.0,STARLINK-3247,PAYLOAD,2023-10-15 19:24:07,15.08845923,0.0001314,53.215,121.1036,96.0258,264.0884,0.00010057,1.313e-05,0.0,0 STARLINK-3247,1 49747U 21115Z   23288.80841790  .00001313  00000-0  10057-3 0  9995,2 49747  53.2150 121.1036 0001314  96.0258 264.0884 15.08845923103306,6917.862,95.437,540.636,538.818,0.0
49747.0,STARLINK-3247,PAYLOAD,2023-10-16 06:31:49,15.08843142,0.000125,53.2152,119.0226,100.8654,259.2479,6.9226e-05,8.14e-06,0.0,0 STARLINK-3247,1 49747U 21115Z   23289.27209961  .00000814  00000-0  69226-4 0  9993,2 49747  53.2152 119.0226 0001250 100.8654 259.2479 15.08843142104485,6917.871,95.437,540.601,538.871,0.0
49747.0,STARLINK-3247,PAYLOAD,2023-10-16 12:53:22,15.08838111,0.0001261,53.2145,117.834,86.9127,273.201,0.00017604,2.515e-05,0.0,0 STARLINK-3247,1 49747U 21115Z   23289.53706343  .00002515  00000-0  17604-3 0  9990,2 49747  53.2145 117.8340 0001261  86.9127 273.2010 15.08838111103410,6917.886,95.438,540.624,538.879,0.0
49747.0,STARLINK-3247,PAYLOAD,2023-10-16 16:04:08,15.0883773,0.0001381,53.215,117.2384,89.6552,270.4598,0.00019412,2.803e-05,0.0,0 STARLINK-3247,1 49747U 21115Z   23289.66954422  .00002803  00000-0  19412-3 0  9996,2 49747  53.2150 117.2384 0001381  89.6552 270.4598 15.08837730104544,6917.887,95.438,540.708,538.797,0.0
49747.0,STARLINK-3247,PAYLOAD,2023-10-17 12:44:09,15.08841911,0.0001387,53.2147,113.3721,92.8611,267.254,0.00012289,1.669e-05,0.0,0 STARLINK-3247,1 49747U 21115Z   23290.53066172  .00001669  00000-0  12289-3 0  9994,2 49747  53.2147 113.3721 0001387  92.8611 267.2540 15.08841911103568,6917.875,95.437,540.699,538.78,0.0
49747.0,STARLINK-3247,PAYLOAD,2023-10-17 15:54:55,15.08842866,0.0001397,53.2145,112.7773,92.6637,267.4515,0.0001277,1.745e-05,0.0,0 STARLINK-3247,1 49747U 21115Z   23290.66314106  .00001745  00000-0  12770-3 0  9991,2 49747  53.2145 112.7773 0001397  92.6637 267.4515 15.08842866103589,6917.872,95.437,540.703,538.77,0.0
49747.0,STARLINK-3247,PAYLOAD,2023-10-18 12:34:56,15.08840879,0.0001507,53.2151,108.912,86.4291,273.6873,0.00010855,1.44e-05,0.0,0 STARLINK-3247,1 49747U 21115Z   23291.52426313  .00001440  00000-0  10855-3 0  9995,2 49747  53.2151 108.9120 0001507  86.4291 273.6873 15.08840879104825,6917.878,95.437,540.785,538.7,0.0
49747.0,STARLINK-3247,PAYLOAD,2023-10-19 10:50:19,15.08845494,0.0001417,53.2145,104.7495,88.0683,272.0471,0.00012189,1.653e-05,0.0,0 STARLINK-3247,1 49747U 21115Z   23292.45161868  .00001653  00000-0  12189-3 0  9997,2 49747  53.2145 104.7495 0001417  88.0683 272.0471 15.08845494103857,6917.864,95.437,540.709,538.748,0.0
49747.0,STARLINK-3247,PAYLOAD,2023-10-19 18:47:15,15.08846939,0.0001337,53.2148,103.2624,86.8658,273.2487,0.00012659,1.728e-05,0.0,0 STARLINK-3247,1 49747U 21115Z   23292.78281674  .00001728  00000-0  12659-3 0  9996,2 49747  53.2148 103.2624 0001337  86.8658 273.2487 15.08846939105012,6917.859,95.437,540.649,538.799,0.0
49747.0,STARLINK-3247,PAYLOAD,2023-10-19 21:58:01,15.08846308,0.0001512,53.2139,102.6673,89.2704,270.8462,0.0001699,2.417e-05,0.0,0 STARLINK-3247,1 49747U 21115Z   23292.91529621  .00002417  00000-0  16990-3 0  9996,2 49747  53.2139 102.6673 0001512  89.2704 270.8462 15.08846308103927,6917.861,95.437,540.772,538.68,0.0
49747.0,STARLINK-3247,PAYLOAD,2023-10-20 10:41:07,15.08837086,0.0001757,53.2141,100.2885,90.6777,269.4417,7.7111e-06,-1.65e-06,0.0,0 STARLINK-3247,1 49747U 21115Z   23293.44522068 -.00000165  00000-0  77111-5 0  9996,2 49747  53.2141 100.2885 0001757  90.6777 269.4417 15.08837086105116,6917.889,95.438,540.97,538.539,0.0
49747.0,STARLINK-3247,PAYLOAD,2023-10-21 20:04:12,15.08852864,0.0001459,53.2149,94.0416,94.5077,265.6082,0.00018885,2.72e-05,0.0,0 STARLINK-3247,1 49747U 21115Z   23294.83625472  .00002720  00000-0  18885-3 0  9992,2 49747  53.2149  94.0416 0001459  94.5077 265.6082 15.08852864105329,6917.841,95.437,540.715,538.697,0.0
49747.0,STARLINK-3247,PAYLOAD,2023-10-22 04:01:09,15.08834848,0.0002176,53.2149,92.5558,89.1914,270.9327,9.6126e-05,1.242e-05,0.0,0 STARLINK-3247,1 49747U 21115Z   23295.16746648  .00001242  00000-0  96126-4 0  9991,2 49747  53.2149  92.5558 0002176  89.1914 270.9327 15.08834848105374,6917.896,95.438,541.266,538.256,0.0
49747.0,STARLINK-3247,PAYLOAD,2023-10-22 10:22:41,15.08836279,0.0002157,53.2144,91.3674,88.2206,271.9033,0.00010721,1.418e-05,0.0,0 STARLINK-3247,1 49747U 21115Z   23295.43242664  .00001418  00000-0  10721-3 0  9991,2 49747  53.2144  91.3674 0002157  88.2206 271.9033 15.08836279104305,6917.892,95.438,541.249,538.265,0.0
